GLOBALSTAR M084         
1 38040U 11080A   25240.31003030 -.00000078  00000+0  14465-3 0  9996
2 38040  51.9994 188.9059 0000305 111.1146  53.5491 12.62268287631772
GLOBALSTAR M080         
1 38041U 11080B   25240.27792069 -.00000087  00000+0  92781-4 0  9997
2 38041  52.0045 190.6212 0000611   9.3675 138.5698 12.62268511631894
GLOBALSTAR M082         
1 38042U 11080C   25240.21774264 -.00000079  00000+0  13583-3 0  9992
2 38042  52.0070 146.2734 0000820  31.8704 133.3762 12.62267941632593
GLOBALSTAR M092         
1 38043U 11080D   25240.17648686 -.00000117  00000+0 -74699-4 0  9996
2 38043  52.0068 236.7808 0000225  88.7693   8.2548 12.62265516631042
GLOBALSTAR M090         
1 38044U 11080E   25240.31862212 -.00000074  00000+0  16482-3 0  9992
2 38044  52.0118 139.8267 0000779  57.8827  86.1428 12.62261855632721
GLOBALSTAR M086         
1 38045U 11080F   25240.19056028 -.00000077  00000+0  14763-3 0  9992
2 38045  51.9892 140.6225 0001480 102.8625  62.2628 12.62276416632658
GLOBALSTAR M097         
1 39072U 13005A   25239.78536427 -.00000106  00000+0 -14076-4 0  9993
2 39072  52.0050  56.4772 0000974  81.7981 278.2997 12.62265747579850
GLOBALSTAR M093         
1 39073U 13005B   25240.47194736 -.00000100  00000+0  22755-4 0  9991
2 39073  52.0112  47.6217 0001199  78.6945 281.4056 12.62264000579898
